[{"OBJECT_NAME":"STARLINK-33795","OBJECT_ID":"2025-069AA","EPOCH":"2025-08-28T12:00:37.730016","MEAN_MOTION":15.30212954,"ECCENTRICITY":0.00010702,"INCLINATION":53.1596,"RA_OF_ASC_NODE":320.0212,"ARG_OF_PERICENTER":86.4156,"MEAN_ANOMALY":273.6967,"EPHEMERIS_TYPE":0,"CLASSIFICATION_TYPE":"U","NORAD_CAT_ID":63457,"ELEMENT_SET_NO":999,"REV_AT_EPOCH":2371,"BSTAR":0.0012627105,"MEAN_MOTION_DOT":0.00037241,"MEAN_MOTION_DDOT":0},{"OBJECT_NAME":"STARLINK-33756","OBJECT_ID":"2025-069AB","EPOCH":"2025-08-28T12:05:10.893120","MEAN_MOTION":15.30188203,"ECCENTRICITY":0.00015355,"INCLINATION":53.1594,"RA_OF_ASC_NODE":320.0335,"ARG_OF_PERICENTER":63.8848,"MEAN_ANOMALY":296.231,"EPHEMERIS_TYPE":0,"CLASSIFICATION_TYPE":"U","NORAD_CAT_ID":63458,"ELEMENT_SET_NO":999,"REV_AT_EPOCH":2382,"BSTAR":0.0010293714,"MEAN_MOTION_DOT":0.00030241,"MEAN_MOTION_DDOT":0},{"OBJECT_NAME":"STARLINK-33780","OBJECT_ID":"2025-069AC","EPOCH":"2025-08-28T12:50:35.875680","MEAN_MOTION":15.30163479,"ECCENTRICITY":0.00013143,"INCLINATION":53.1591,"RA_OF_ASC_NODE":319.5209,"ARG_OF_PERICENTER":120.0957,"MEAN_ANOMALY":240.0174,"EPHEMERIS_TYPE":0,"CLASSIFICATION_TYPE":"U","NORAD_CAT_ID":63459,"ELEMENT_SET_NO":999,"REV_AT_EPOCH":2372,"BSTAR":0.00058328871,"MEAN_MOTION_DOT":0.00016936,"MEAN_MOTION_DDOT":0},{"OBJECT_NAME":"STARLINK-33679","OBJECT_ID":"2025-070A","EPOCH":"2025-08-28T02:00:05.158656","MEAN_MOTION":15.27595306,"ECCENTRICITY":4.739e-5,"INCLINATION":43.0005,"RA_OF_ASC_NODE":273.4992,"ARG_OF_PERICENTER":273.2971,"MEAN_ANOMALY":86.7826,"EPHEMERIS_TYPE":0,"CLASSIFICATION_TYPE":"U","NORAD_CAT_ID":63460,"ELEMENT_SET_NO":999,"REV_AT_EPOCH":2336,"BSTAR":0.0011886079,"MEAN_MOTION_DOT":0.00032606,"MEAN_MOTION_DDOT":0},{"OBJECT_NAME":"STARLINK-33706","OBJECT_ID":"2025-070B","EPOCH":"2025-08-28T03:39:47.233728","MEAN_MOTION":15.27597121,"ECCENTRICITY":8.942e-5,"INCLINATION":43.0007,"RA_OF_ASC_NODE":273.1234,"ARG_OF_PERICENTER":242.4791,"MEAN_ANOMALY":117.597,"EPHEMERIS_TYPE":0,"CLASSIFICATION_TYPE":"U","NORAD_CAT_ID":63461,"ELEMENT_SET_NO":999,"REV_AT_EPOCH":2337,"BSTAR":0.00091458544,"MEAN_MOTION_DOT":0.00025004,"MEAN_MOTION_DDOT":0},{"OBJECT_NAME":"STARLINK-33691","OBJECT_ID":"2025-070C","EPOCH":"2025-08-28T10:16:31.875744","MEAN_MOTION":15.27671794,"ECCENTRICITY":0.00017388,"INCLINATION":42.9993,"RA_OF_ASC_NODE":270.8891,"ARG_OF_PERICENTER":284.8766,"MEAN_ANOMALY":75.1893,"EPHEMERIS_TYPE":0,"CLASSIFICATION_TYPE":"U","NORAD_CAT_ID":63462,"ELEMENT_SET_NO":999,"REV_AT_EPOCH":2337,"BSTAR":0.0017818079,"MEAN_MOTION_DOT":0.00049236,"MEAN_MOTION_DDOT":0},{"OBJECT_NAME":"STARLINK-33696","OBJECT_ID":"2025-070D","EPOCH":"2025-08-28T14:01:50.894976","MEAN_MOTION":15.27594678,"ECCENTRICITY":9.732e-5,"INCLINATION":42.9991,"RA_OF_ASC_NODE":270.3463,"ARG_OF_PERICENTER":298.5081,"MEAN_ANOMALY":61.5672,"EPHEMERIS_TYPE":0,"CLASSIFICATION_TYPE":"U","NORAD_CAT_ID":63463,"ELEMENT_SET_NO":999,"REV_AT_EPOCH":2344,"BSTAR":0.00034658423,"MEAN_MOTION_DOT":9.291e-5,"MEAN_MOTION_DDOT":0},{"OBJECT_NAME":"STARLINK-33701","OBJECT_ID":"2025-070E","EPOCH":"2025-08-28T02:11:10.717728","MEAN_MOTION":15.27603087,"ECCENTRICITY":5.402e-5,"INCLINATION":43.0011,"RA_OF_ASC_NODE":273.5215,"ARG_OF_PERICENTER":261.6763,"MEAN_ANOMALY":98.4028,"EPHEMERIS_TYPE":0,"CLASSIFICATION_TYPE":"U","NORAD_CAT_ID":63464,"ELEMENT_SET_NO":999,"REV_AT_EPOCH":2336,"BSTAR":0.0014444183,"MEAN_MOTION_DOT":0.00039727,"MEAN_MOTION_DDOT":0},{"OBJECT_NAME":"STARLINK-33685","OBJECT_ID":"2025-070F","EPOCH":"2025-08-28T03:19:25.955040","MEAN_MOTION":15.27576602,"ECCENTRICITY":0.00011994,"INCLINATION":43.0008,"RA_OF_ASC_NODE":273.0182,"ARG_OF_PERICENTER":266.0081,"MEAN_ANOMALY":94.0634,"EPHEMERIS_TYPE":0,"CLASSIFICATION_TYPE":"U","NORAD_CAT_ID":63465,"ELEMENT_SET_NO":999,"REV_AT_EPOCH":2337,"BSTAR":0.00097745722,"MEAN_MOTION_DOT":0.0002673,"MEAN_MOTION_DDOT":0},{"OBJECT_NAME":"STARLINK-33654","OBJECT_ID":"2025-070G","EPOCH":"2025-08-28T10:55:24.440736","MEAN_MOTION":15.27594824,"ECCENTRICITY":0.00015342,"INCLINATION":43.0005,"RA_OF_ASC_NODE":271.0902,"ARG_OF_PERICENTER":268.7493,"MEAN_ANOMALY":91.3183,"EPHEMERIS_TYPE":0,"CLASSIFICATION_TYPE":"U","NORAD_CAT_ID":63466,"ELEMENT_SET_NO":999,"REV_AT_EPOCH":2342,"BSTAR":0.0012272617,"MEAN_MOTION_DOT":0.00033679,"MEAN_MOTION_DDOT":0},{"OBJECT_NAME":"STARLINK-33697","OBJECT_ID":"2025-070H","EPOCH":"2025-08-28T10:59:06.877536","MEAN_MOTION":15.27584405,"ECCENTRICITY":0.00013894,"INCLINATION":43.0002,"RA_OF_ASC_NODE":271.1233,"ARG_OF_PERICENTER":272.1157,"MEAN_ANOMALY":87.9536,"EPHEMERIS_TYPE":0,"CLASSIFICATION_TYPE":"U","NORAD_CAT_ID":63467,"ELEMENT_SET_NO":999,"REV_AT_EPOCH":2342,"BSTAR":0.00081978107,"MEAN_MOTION_DOT":0.00022368,"MEAN_MOTION_DDOT":0},{"OBJECT_NAME":"STARLINK-33720","OBJECT_ID":"2025-070J","EPOCH":"2025-08-28T12:35:07.118880","MEAN_MOTION":15.2758701,"ECCENTRICITY":0.0001316,"INCLINATION":43.0005,"RA_OF_ASC_NODE":270.7509,"ARG_OF_PERICENTER":263.1368,"MEAN_ANOMALY":96.9334,"EPHEMERIS_TYPE":0,"CLASSIFICATION_TYPE":"U","NORAD_CAT_ID":63468,"ELEMENT_SET_NO":999,"REV_AT_EPOCH":2343,"BSTAR":0.0010100096,"MEAN_MOTION_DOT":0.00027641,"MEAN_MOTION_DDOT":0},{"OBJECT_NAME":"STARLINK-33587","OBJECT_ID":"2025-070K","EPOCH":"2025-08-28T10:38:45.553056","MEAN_MOTION":15.27601544,"ECCENTRICITY":0.00015727,"INCLINATION":43.0005,"RA_OF_ASC_NODE":271.0042,"ARG_OF_PERICENTER":257.6593,"MEAN_ANOMALY":102.4083,"EPHEMERIS_TYPE":0,"CLASSIFICATION_TYPE":"U","NORAD_CAT_ID":63469,"ELEMENT_SET_NO":999,"REV_AT_EPOCH":2342,"BSTAR":0.0014042471,"MEAN_MOTION_DOT":0.00038608,"MEAN_MOTION_DDOT":0},{"OBJECT_NAME":"STARLINK-33637","OBJECT_ID":"2025-070L","EPOCH":"2025-08-28T02:16:43.533120","MEAN_MOTION":15.2761622,"ECCENTRICITY":0.00024374,"INCLINATION":42.9997,"RA_OF_ASC_NODE":273.5485,"ARG_OF_PERICENTER":284.2928,"MEAN_ANOMALY":75.7653,"EPHEMERIS_TYPE":0,"CLASSIFICATION_TYPE":"U","NORAD_CAT_ID":63470,"ELEMENT_SET_NO":999,"REV_AT_EPOCH":2336,"BSTAR":0.0015031141,"MEAN_MOTION_DOT":0.0004138,"MEAN_MOTION_DDOT":0},{"OBJECT_NAME":"STARLINK-33744","OBJECT_ID":"2025-070M","EPOCH":"2025-08-28T11:19:28.098336","MEAN_MOTION":15.27581751,"ECCENTRICITY":0.00017073,"INCLINATION":43.006,"RA_OF_ASC_NODE":271.2177,"ARG_OF_PERICENTER":275.9644,"MEAN_ANOMALY":84.1013,"EPHEMERIS_TYPE":0,"CLASSIFICATION_TYPE":"U","NORAD_CAT_ID":63471,"ELEMENT_SET_NO":999,"REV_AT_EPOCH":2342,"BSTAR":0.00082459013,"MEAN_MOTION_DOT":0.00022499,"MEAN_MOTION_DDOT":0},{"OBJECT_NAME":"STARLINK-33766","OBJECT_ID":"2025-070N","EPOCH":"2025-08-28T13:06:34.519968","MEAN_MOTION":15.27604059,"ECCENTRICITY":8.43e-5,"INCLINATION":43.0018,"RA_OF_ASC_NODE":270.9179,"ARG_OF_PERICENTER":265.0339,"MEAN_ANOMALY":95.0417,"EPHEMERIS_TYPE":0,"CLASSIFICATION_TYPE":"U","NORAD_CAT_ID":63472,"ELEMENT_SET_NO":999,"REV_AT_EPOCH":2343,"BSTAR":0.0012983977,"MEAN_MOTION_DOT":0.00035666,"MEAN_MOTION_DDOT":0}]
