STARLINK-33795          
1 63457U 25069AA  25240.50043669  .00037241  00000+0  12627-2 0  9999
2 63457  53.1596 320.0212 0001070  86.4156 273.6967 15.30212954 23719
STARLINK-33756          
1 63458U 25069AB  25240.50359830  .00030241  00000+0  10294-2 0  9991
2 63458  53.1594 320.0335 0001535  63.8848 296.2310 15.30188203 23821
STARLINK-33780          
1 63459U 25069AC  25240.53513745  .00016936  00000+0  58329-3 0  9999
2 63459  53.1591 319.5209 0001314 120.0957 240.0174 15.30163479 23726
STARLINK-33679          
1 63460U 25070A   25240.08339304  .00032606  00000+0  11886-2 0  9998
2 63460  43.0005 273.4992 0000473 273.2971  86.7826 15.27595306 23368
STARLINK-33706          
1 63461U 25070B   25240.15263002  .00025004  00000+0  91459-3 0  9997
2 63461  43.0007 273.1234 0000894 242.4791 117.5970 15.27597121 23373
STARLINK-33691          
1 63462U 25070C   25240.42814671  .00049236  00000+0  17818-2 0  9991
2 63462  42.9993 270.8891 0001738 284.8766  75.1893 15.27671794 23371
STARLINK-33696          
1 63463U 25070D   25240.58461684  .00009291  00000+0  34658-3 0  9990
2 63463  42.9991 270.3463 0000973 298.5081  61.5672 15.27594678 23449
STARLINK-33701          
1 63464U 25070E   25240.09109627  .00039727  00000+0  14444-2 0  9990
2 63464  43.0011 273.5215 0000540 261.6763  98.4028 15.27603087 23363
STARLINK-33685          
1 63465U 25070F   25240.13849485  .00026730  00000+0  97746-3 0  9996
2 63465  43.0008 273.0182 0001199 266.0081  94.0634 15.27576602 23379
STARLINK-33654          
1 63466U 25070G   25240.45514399  .00033679  00000+0  12273-2 0  9996
2 63466  43.0005 271.0902 0001534 268.7493  91.3183 15.27594824 23425
STARLINK-33697          
1 63467U 25070H   25240.45771849  .00022368  00000+0  81978-3 0  9994
2 63467  43.0002 271.1233 0001389 272.1157  87.9536 15.27584405 23422
STARLINK-33720          
1 63468U 25070J   25240.52438795  .00027641  00000+0  10100-2 0  9990
2 63468  43.0005 270.7509 0001316 263.1368  96.9334 15.27587010 23433
STARLINK-33587          
1 63469U 25070K   25240.44358279  .00038608  00000+0  14042-2 0  9994
2 63469  43.0005 271.0042 0001572 257.6593 102.4083 15.27601544 23424
STARLINK-33637          
1 63470U 25070L   25240.09494830  .00041380  00000+0  15031-2 0  9991
2 63470  42.9997 273.5485 0002437 284.2928  75.7653 15.27616220 23366
STARLINK-33744          
1 63471U 25070M   25240.47185299  .00022499  00000+0  82459-3 0  9999
2 63471  43.0060 271.2177 0001707 275.9644  84.1013 15.27581751 23425
STARLINK-33766          
1 63472U 25070N   25240.54623287  .00035666  00000+0  12984-2 0  9997
2 63472  43.0018 270.9179 0000843 265.0339  95.0417 15.27604059 23435
